{
 "generated_at": "2026-07-10T08:23:00Z",
 "sources": [
  {
   "name": "CelesTrak",
   "url": "https://celestrak.org/NORAD/elements/",
   "license": "frei verfügbar; Attribution. Ursprünglich USSPACECOM/Space-Track."
  },
  {
   "name": "GCAT (J. McDowell, planet4589.org)",
   "url": "https://planet4589.org/space/gcat/",
   "license": "CC-BY 4.0"
  }
 ],
 "satellites": [
  {
   "norad": 43226,
   "name": "GOES 17",
   "intl": "2018-022A",
   "group": "weather",
   "gcat": {
    "class": "C",
    "category": "MET",
    "owner": "NOAA",
    "state": "US"
   },
   "omm": {
    "OBJECT_NAME": "GOES 17",
    "OBJECT_ID": "2018-022A",
    "EPOCH": "2026-07-09T14:56:17.610720",
    "MEAN_MOTION": 1.00271182,
    "ECCENTRICITY": 0.0000596,
    "INCLINATION": 0.9913,
    "RA_OF_ASC_NODE": 85.3468,
    "ARG_OF_PERICENTER": 74.275,
    "MEAN_ANOMALY": 262.5157,
    "EPHEMERIS_TYPE": 0,
    "CLASSIFICATION_TYPE": "U",
    "NORAD_CAT_ID": 43226,
    "ELEMENT_SET_NO": 999,
    "REV_AT_EPOCH": 3064,
    "BSTAR": 0,
    "MEAN_MOTION_DOT": -0.00000171,
    "MEAN_MOTION_DDOT": 0
   }
  },
  {
   "norad": 51850,
   "name": "GOES 18",
   "intl": "2022-021A",
   "group": "weather",
   "gcat": {
    "class": "C",
    "category": "MET",
    "owner": "NOAA",
    "state": "US"
   },
   "omm": {
    "OBJECT_NAME": "GOES 18",
    "OBJECT_ID": "2022-021A",
    "EPOCH": "2026-07-09T18:08:06.159840",
    "MEAN_MOTION": 1.00271909,
    "ECCENTRICITY": 0.000059,
    "INCLINATION": 0.0049,
    "RA_OF_ASC_NODE": 166.3359,
    "ARG_OF_PERICENTER": 21.9556,
    "MEAN_ANOMALY": 234.4155,
    "EPHEMERIS_TYPE": 0,
    "CLASSIFICATION_TYPE": "U",
    "NORAD_CAT_ID": 51850,
    "ELEMENT_SET_NO": 999,
    "REV_AT_EPOCH": 681,
    "BSTAR": 0,
    "MEAN_MOTION_DOT": 0.00000109,
    "MEAN_MOTION_DDOT": 0
   }
  },
  {
   "norad": 60133,
   "name": "GOES 19",
   "intl": "2024-119A",
   "group": "weather",
   "gcat": {
    "class": "C",
    "category": "MET",
    "owner": "NOAA",
    "state": "US"
   },
   "omm": {
    "OBJECT_NAME": "GOES 19",
    "OBJECT_ID": "2024-119A",
    "EPOCH": "2026-07-09T13:17:41.191008",
    "MEAN_MOTION": 1.00270798,
    "ECCENTRICITY": 0.0000544,
    "INCLINATION": 0.0195,
    "RA_OF_ASC_NODE": 203.5869,
    "ARG_OF_PERICENTER": 356.4594,
    "MEAN_ANOMALY": 211.6712,
    "EPHEMERIS_TYPE": 0,
    "CLASSIFICATION_TYPE": "U",
    "NORAD_CAT_ID": 60133,
    "ELEMENT_SET_NO": 999,
    "REV_AT_EPOCH": 718,
    "BSTAR": 0,
    "MEAN_MOTION_DOT": -0.00000235,
    "MEAN_MOTION_DDOT": 0
   }
  },
  {
   "norad": 41875,
   "name": "GOKTURK 1A",
   "intl": "2016-073A",
   "group": "resource",
   "gcat": {
    "class": "D",
    "category": "IMG",
    "owner": "MSBTR",
    "state": "TR"
   },
   "omm": {
    "OBJECT_NAME": "GOKTURK 1A",
    "OBJECT_ID": "2016-073A",
    "EPOCH": "2026-07-09T19:39:15.839712",
    "MEAN_MOTION": 14.62790877,
    "ECCENTRICITY": 0.0001436,
    "INCLINATION": 98.1221,
    "RA_OF_ASC_NODE": 85.1357,
    "ARG_OF_PERICENTER": 79.0977,
    "MEAN_ANOMALY": 281.0387,
    "EPHEMERIS_TYPE": 0,
    "CLASSIFICATION_TYPE": "U",
    "NORAD_CAT_ID": 41875,
    "ELEMENT_SET_NO": 999,
    "REV_AT_EPOCH": 51213,
    "BSTAR": 0.000047131,
    "MEAN_MOTION_DOT": 0.00000194,
    "MEAN_MOTION_DDOT": 0
   }
  },
  {
   "norad": 39030,
   "name": "GOKTURK 2",
   "intl": "2012-073A",
   "group": "resource",
   "gcat": {
    "class": "D",
    "category": "IMG",
    "owner": "MSBTR",
    "state": "TR"
   },
   "omm": {
    "OBJECT_NAME": "GOKTURK 2",
    "OBJECT_ID": "2012-073A",
    "EPOCH": "2026-07-09T19:09:05.855616",
    "MEAN_MOTION": 14.75566656,
    "ECCENTRICITY": 0.0000921,
    "INCLINATION": 97.682,
    "RA_OF_ASC_NODE": 27.0955,
    "ARG_OF_PERICENTER": 79.9103,
    "MEAN_ANOMALY": 280.2211,
    "EPHEMERIS_TYPE": 0,
    "CLASSIFICATION_TYPE": "U",
    "NORAD_CAT_ID": 39030,
    "ELEMENT_SET_NO": 999,
    "REV_AT_EPOCH": 72784,
    "BSTAR": 0.00010457,
    "MEAN_MOTION_DOT": 0.00000666,
    "MEAN_MOTION_DDOT": 0
   }
  },
  {
   "norad": 33492,
   "name": "GOSAT (IBUKI)",
   "intl": "2009-002A",
   "group": "resource",
   "gcat": {
    "class": "C",
    "category": "EOSCI",
    "owner": "JAXA",
    "state": "J"
   },
   "omm": {
    "OBJECT_NAME": "GOSAT (IBUKI)",
    "OBJECT_ID": "2009-002A",
    "EPOCH": "2026-07-09T07:08:29.680800",
    "MEAN_MOTION": 14.67534705,
    "ECCENTRICITY": 0.00011146,
    "INCLINATION": 98.0911,
    "RA_OF_ASC_NODE": 301.1039,
    "ARG_OF_PERICENTER": 80.2979,
    "MEAN_ANOMALY": 279.8352,
    "EPHEMERIS_TYPE": 0,
    "CLASSIFICATION_TYPE": "U",
    "NORAD_CAT_ID": 33492,
    "ELEMENT_SET_NO": 999,
    "REV_AT_EPOCH": 93470,
    "BSTAR": -0.000001392521,
    "MEAN_MOTION_DOT": -5.6e-7,
    "MEAN_MOTION_DDOT": 0
   }
  },
  {
   "norad": 64694,
   "name": "GOSAT-GW (IBUKI GW)",
   "intl": "2025-141A",
   "group": "resource",
   "gcat": {
    "class": "C",
    "category": "EOSCI",
    "owner": "JAXA",
    "state": "J"
   },
   "omm": {
    "OBJECT_NAME": "GOSAT-GW (IBUKI GW)",
    "OBJECT_ID": "2025-141A",
    "EPOCH": "2026-07-09T19:50:00.520224",
    "MEAN_MOTION": 14.67553837,
    "ECCENTRICITY": 0.0001445,
    "INCLINATION": 98.0566,
    "RA_OF_ASC_NODE": 127.7756,
    "ARG_OF_PERICENTER": 83.9697,
    "MEAN_ANOMALY": 276.1672,
    "EPHEMERIS_TYPE": 0,
    "CLASSIFICATION_TYPE": "U",
    "NORAD_CAT_ID": 64694,
    "ELEMENT_SET_NO": 999,
    "REV_AT_EPOCH": 5516,
    "BSTAR": -3.9529e-7,
    "MEAN_MOTION_DOT": -5e-7,
    "MEAN_MOTION_DDOT": 0
   }
  },
  {
   "norad": 39574,
   "name": "GPM-CORE",
   "intl": "2014-009C",
   "group": "resource",
   "gcat": {
    "class": "C",
    "category": "EOSCI",
    "owner": "GSFC",
    "state": "US"
   },
   "omm": {
    "OBJECT_NAME": "GPM-CORE",
    "OBJECT_ID": "2014-009C",
    "EPOCH": "2026-07-09T19:16:23.913984",
    "MEAN_MOTION": 15.45002483,
    "ECCENTRICITY": 0.0011063,
    "INCLINATION": 64.9701,
    "RA_OF_ASC_NODE": 232.358,
    "ARG_OF_PERICENTER": 260.2443,
    "MEAN_ANOMALY": 99.7448,
    "EPHEMERIS_TYPE": 0,
    "CLASSIFICATION_TYPE": "U",
    "NORAD_CAT_ID": 39574,
    "ELEMENT_SET_NO": 999,
    "REV_AT_EPOCH": 70130,
    "BSTAR": 0.000091938,
    "MEAN_MOTION_DOT": 0.00004108,
    "MEAN_MOTION_DDOT": 0
   }
  },
  {
   "norad": 31113,
   "name": "HAIYANG-1B",
   "intl": "2007-010A",
   "group": "resource",
   "gcat": {
    "class": null,
    "category": null,
    "owner": null,
    "state": null
   },
   "omm": {
    "OBJECT_NAME": "HAIYANG-1B",
    "OBJECT_ID": "2007-010A",
    "EPOCH": "2026-07-09T15:49:03.724032",
    "MEAN_MOTION": 14.31032387,
    "ECCENTRICITY": 0.001445,
    "INCLINATION": 98.351,
    "RA_OF_ASC_NODE": 171.6342,
    "ARG_OF_PERICENTER": 131.0911,
    "MEAN_ANOMALY": 229.1523,
    "EPHEMERIS_TYPE": 0,
    "CLASSIFICATION_TYPE": "U",
    "NORAD_CAT_ID": 31113,
    "ELEMENT_SET_NO": 999,
    "REV_AT_EPOCH": 385,
    "BSTAR": 0.000037059,
    "MEAN_MOTION_DOT": 5.6e-7,
    "MEAN_MOTION_DDOT": 0
   }
  },
  {
   "norad": 37781,
   "name": "HAIYANG-2A",
   "intl": "2011-043A",
   "group": "resource",
   "gcat": {
    "class": null,
    "category": null,
    "owner": null,
    "state": null
   },
   "omm": {
    "OBJECT_NAME": "HAIYANG-2A",
    "OBJECT_ID": "2011-043A",
    "EPOCH": "2026-07-09T19:55:29.592768",
    "MEAN_MOTION": 13.73551708,
    "ECCENTRICITY": 0.0003318,
    "INCLINATION": 99.3402,
    "RA_OF_ASC_NODE": 192.9919,
    "ARG_OF_PERICENTER": 43.9053,
    "MEAN_ANOMALY": 316.2359,
    "EPHEMERIS_TYPE": 0,
    "CLASSIFICATION_TYPE": "U",
    "NORAD_CAT_ID": 37781,
    "ELEMENT_SET_NO": 999,
    "REV_AT_EPOCH": 74976,
    "BSTAR": 0.000031915,
    "MEAN_MOTION_DOT": -1.4e-7,
    "MEAN_MOTION_DDOT": 0
   }
  }
 ]
}
