HAIYANG-1B              
1 31113U 07010A   26190.65907088  .00000056  00000+0  37059-4 0  9996
2 31113  98.3510 171.6342 0014450 131.0911 229.1523 14.31032387  3853
GOSAT (IBUKI)           
1 33492U 09002A   26190.29756575 -.00000056  00000+0 -13925-5 0  9993
2 33492  98.0911 301.1039 0001114  80.2979 279.8352 14.67534705934701
HAIYANG-2A              
1 37781U 11043A   26190.83020362 -.00000014  00000+0  31915-4 0  9995
2 37781  99.3402 192.9919 0003318  43.9053 316.2359 13.73551708749766
GOKTURK 2               
1 39030U 12073A   26190.79798444  .00000666  00000+0  10457-3 0  9995
2 39030  97.6820  27.0955 0000921  79.9103 280.2211 14.75566656727843
GPM-CORE                
1 39574U 14009C   26190.80305456  .00004108  00000+0  91938-4 0  9997
2 39574  64.9701 232.3580 0011063 260.2443  99.7448 15.45002483701306
GOKTURK 1A              
1 41875U 16073A   26190.81893333  .00000194  00000+0  47131-4 0  9991
2 41875  98.1221  85.1357 0001436  79.0977 281.0387 14.62790877512134
GOES 17                 
1 43226U 18022A   26190.62242605 -.00000171  00000+0  00000+0 0  9993
2 43226   0.9913  85.3468 0000596  74.2750 262.5157  1.00271182 30643
GOES 18                 
1 51850U 22021A   26190.75562685  .00000109  00000+0  00000+0 0  9996
2 51850   0.0049 166.3359 0000590  21.9556 234.4155  1.00271909  6817
GOES 19                 
1 60133U 24119A   26190.55394897 -.00000235  00000+0  00000+0 0  9997
2 60133   0.0195 203.5869 0000544 356.4594 211.6712  1.00270798  7182
GOSAT-GW (IBUKI GW)     
1 64694U 25141A   26190.82639491 -.00000050  00000+0 -39529-6 0  9992
2 64694  98.0566 127.7756 0001445  83.9697 276.1672 14.67553837 55163
